NORAD_CAT_ID,OBJECT_NAME,OBJECT_TYPE,EPOCH,MEAN_MOTION,ECCENTRICITY,INCLINATION,RA_OF_ASC_NODE,ARG_OF_PERICENTER,MEAN_ANOMALY,BSTAR,MEAN_MOTION_DOT,MEAN_MOTION_DDOT,TLE_LINE0,TLE_LINE1,TLE_LINE2,SEMIMAJOR_AXIS,PERIOD,APOGEE,PERIGEE,DECAYED
50188.0,STARLINK-3275,PAYLOAD,2022-08-07 16:31:22,15.08842057,0.000155,53.2179,359.9349,61.9332,298.1817,9.6503e-05,1.248e-05,0.0,0 STARLINK-3275,1 50188U 21125AJ  22219.68844975  .00001248  00000-0  96503-4 0  9992,2 50188  53.2179 359.9349 0001550  61.9332 298.1817 15.08842057 39017,6917.874,95.437,540.811,538.6669999999998,0.0
50188.0,STARLINK-3275,PAYLOAD,2022-08-08 08:25:13,15.08843271,0.0001574,53.2174,356.96,57.8122,302.3022,5.8486e-05,6.43e-06,0.0,0 STARLINK-3275,1 50188U 21125AJ  22220.35085172  .00000643  00000-0  58486-4 0  9990,2 50188  53.2174 356.9600 0001574  57.8122 302.3022 15.08843271 35972,6917.87,95.437,540.8240000000002,538.6469999999998,0.0
50188.0,STARLINK-3275,PAYLOAD,2022-08-08 19:32:54,15.08853351,0.0001525,53.2172,354.8798,62.5084,297.6063,0.00017257,2.461e-05,0.0,0 STARLINK-3275,1 50188U 21125AJ  22220.81452311  .00002461  00000-0  17257-3 0  9994,2 50188  53.2172 354.8798 0001525  62.5084 297.6063 15.08853351 39189,6917.84,95.437,540.76,538.65,0.0
50188.0,STARLINK-3275,PAYLOAD,2022-08-09 01:54:27,15.088575,0.000158,53.217,353.6903,60.9333,299.1817,0.00028671,4.28e-05,0.0,0 STARLINK-3275,1 50188U 21125AJ  22221.07948062  .00004280  00000-0  28671-3 0  9999,2 50188  53.2170 353.6903 0001580  60.9333 299.1817 15.08857500 39221,6917.8269999999975,95.436,540.785,538.599,0.0
50188.0,STARLINK-3275,PAYLOAD,2022-08-10 01:45:14,15.08835388,9.57e-05,53.218,349.2296,41.2648,318.8416,-0.00011897,-2.18e-05,0.0,0 STARLINK-3275,1 50188U 21125AJ  22222.07308612 -.00002180  00000-0 -11897-3 0  9992,2 50188  53.2180 349.2296 0000957  41.2648 318.8416 15.08835388 36238,6917.894,95.438,540.422,539.097,0.0
50188.0,STARLINK-3275,PAYLOAD,2022-08-10 11:17:34,15.08812129,0.0001738,53.2174,347.445,62.3382,297.7786,-0.00045279,-7.482e-05,0.0,0 STARLINK-3275,1 50188U 21125AJ  22222.47054319 -.00007482  00000-0 -45279-3 0  9999,2 50188  53.2174 347.4450 0001738  62.3382 297.7786 15.08812129 39438,6917.965999999999,95.439,541.033,538.628,0.0
50188.0,STARLINK-3275,PAYLOAD,2022-08-10 14:28:22,15.08819915,0.0001663,53.2184,346.8515,61.2645,298.8514,-0.00017975,-3.146e-05,0.0,0 STARLINK-3275,1 50188U 21125AJ  22222.60303585 -.00003146  00000-0 -17975-3 0  9991,2 50188  53.2184 346.8515 0001663  61.2645 298.8514 15.08819915 36316,6917.941999999999,95.439,540.957,538.656,0.0
50188.0,STARLINK-3275,PAYLOAD,2022-08-10 16:03:45,15.08820624,0.0001651,53.2183,346.55400000000014,60.985,299.1308,-0.00017531,-3.076e-05,0.0,0 STARLINK-3275,1 50188U 21125AJ  22222.66927585 -.00003076  00000-0 -17531-3 0  9999,2 50188  53.2183 346.5540 0001651  60.9850 299.1308 15.08820624 39464,6917.94,95.439,540.947,538.6619999999998,0.0
50188.0,STARLINK-3275,PAYLOAD,2022-08-11 12:43:46,15.08824697,0.0001457,53.218,342.6879,61.3467,298.7672,2.4915e-05,1.08e-06,0.0,0 STARLINK-3275,1 50188U 21125AJ  22223.53039459  .00000108  00000-0  24915-4 0  9996,2 50188  53.2180 342.6879 0001457  61.3467 298.7672 15.08824697 39593,6917.927,95.439,540.8,538.784,0.0
50188.0,STARLINK-3275,PAYLOAD,2022-08-11 17:29:55,15.08813613,0.0001588,53.2181,341.7962,60.5065,299.6085,0.00018722,2.691e-05,0.0,0 STARLINK-3275,1 50188U 21125AJ  22223.72911479  .00002691  00000-0  18722-3 0  9995,2 50188  53.2181 341.7962 0001588  60.5065 299.6085 15.08813613 36486,6917.9609999999975,95.439,540.925,538.727,0.0
50188.0,STARLINK-3275,PAYLOAD,2022-08-12 01:26:51,15.08822284,0.0001565999999999,53.2181,340.3093,60.1423,299.9725,0.00024601,3.628e-05,0.0,0 STARLINK-3275,1 50188U 21125AJ  22224.06031271  .00003628  00000-0  24601-3 0  9990,2 50188  53.2181 340.3093 0001566  60.1423 299.9725 15.08822284 36530,6917.935,95.439,540.883,538.716,0.0
50188.0,STARLINK-3275,PAYLOAD,2022-08-12 12:34:32,15.08835585,0.000155,53.2179,338.2276,59.6305,300.4841,0.00035379,5.346e-05,0.0,0 STARLINK-3275,1 50188U 21125AJ  22224.52398898  .00005346  00000-0  35379-3 0  9995,2 50188  53.2179 338.2276 0001550  59.6305 300.4841 15.08835585 39742,6917.894,95.438,540.831,538.687,0.0
50188.0,STARLINK-3275,PAYLOAD,2022-08-12 14:09:55,15.08840065,0.0001554,53.2178,337.9303,58.5134,301.601,0.00036242,5.485e-05,0.0,0 STARLINK-3275,1 50188U 21125AJ  22224.59022810  .00005485  00000-0  36242-3 0  9994,2 50188  53.2178 337.9303 0001554  58.5134 301.6010 15.08840065 39751,6917.88,95.438,540.82,538.67,0.0
50188.0,STARLINK-3275,PAYLOAD,2022-08-13 14:00:42,15.08855529,0.0001655,53.2173,333.4699,56.6794,303.4357,0.0002663,3.954e-05,0.0,0 STARLINK-3275,1 50188U 21125AJ  22225.58382725  .00003954  00000-0  26630-3 0  9997,2 50188  53.2173 333.4699 0001655  56.6794 303.4357 15.08855529 39900,6917.833000000001,95.437,540.8430000000002,538.553,0.0
50188.0,STARLINK-3275,PAYLOAD,2022-08-13 17:11:28,15.08850391,0.000158,53.2172,332.875,57.4407,302.6738,0.00012904,1.767e-05,0.0,0 STARLINK-3275,1 50188U 21125AJ  22225.71630778  .00001767  00000-0  12904-3 0  9995,2 50188  53.2172 332.8750 0001580  57.4407 302.6738 15.08850391 39925,6917.849,95.437,540.807,538.621,0.0
50188.0,STARLINK-3275,PAYLOAD,2022-08-14 12:16:07,15.08843149,0.0001504,53.2181,329.3065,66.5582,293.5568,-3.5366e-05,-8.51e-06,0.0,0 STARLINK-3275,1 50188U 21125AJ  22226.51119313 -.00000851  00000-0 -35366-4 0  9994,2 50188  53.2181 329.3065 0001504  66.5582 293.5568 15.08843149 40043,6917.871,95.437,540.776,538.695,0.0
50188.0,STARLINK-3275,PAYLOAD,2022-08-14 15:26:53,15.08844499,0.0001544,53.2177,328.7119,57.2877,302.8264,-5.2484e-05,-1.123e-05,0.0,0 STARLINK-3275,1 50188U 21125AJ  22226.64367243 -.00001123  00000-0 -52484-4 0  9998,2 50188  53.2177 328.7119 0001544  57.2877 302.8264 15.08844499 40067,6917.8669999999975,95.437,540.8,538.664,0.0
50188.0,STARLINK-3275,PAYLOAD,2022-08-15 10:31:30,15.08837971,0.0001579,53.2176,325.1434,55.3362,304.7779,5.3109e-05,5.57e-06,0.0,0 STARLINK-3275,1 50188U 21125AJ  22227.43855110  .00000557  00000-0  53109-4 0  9994,2 50188  53.2176 325.1434 0001579  55.3362 304.7779 15.08837971 40185,6917.887,95.438,540.844,538.659,0.0
50188.0,STARLINK-3275,PAYLOAD,2022-08-15 13:42:17,15.08838093,0.0001585999999999,53.2176,324.5488,55.3824,304.7318,4.8998e-05,4.92e-06,0.0,0 STARLINK-3275,1 50188U 21125AJ  22227.57103113  .00000492  00000-0  48998-4 0  9996,2 50188  53.2176 324.5488 0001586  55.3824 304.7318 15.08838093 37066,6917.886,95.438,540.8480000000002,538.654,0.0
50188.0,STARLINK-3275,PAYLOAD,2022-08-15 15:17:40,15.08839036,0.0001587,53.2176,324.2513,55.2445,304.8697,5.4527e-05,5.8e-06,0.0,0 STARLINK-3275,1 50188U 21125AJ  22227.63727037  .00000580  00000-0  54527-4 0  9993,2 50188  53.2176 324.2513 0001587  55.2445 304.8697 15.08839036 40211,6917.8830000000025,95.438,540.846,538.65,0.0
50188.0,STARLINK-3275,PAYLOAD,2022-08-16 11:57:40,15.08836004,0.0001626,53.2176,320.3856,62.1849,297.9307,0.00030898,4.632e-05,0.0,0 STARLINK-3275,1 50188U 21125AJ  22228.49838725  .00004632  00000-0  30898-3 0  9991,2 50188  53.2176 320.3856 0001626  62.1849 297.9307 15.08836004 40343,6917.893,95.438,540.882,538.633,0.0
50188.0,STARLINK-3275,PAYLOAD,2022-08-17 05:26:55,15.08839614,0.0001817,53.2176,317.1155,50.9582,309.1572,8.6473e-05,1.088e-05,0.0,0 STARLINK-3275,1 50188U 21125AJ  22229.22702930  .00001088  00000-0  86473-4 0  9994,2 50188  53.2176 317.1155 0001817  50.9582 309.1572 15.08839614 37313,6917.882,95.438,541.004,538.49,0.0
50188.0,STARLINK-3275,PAYLOAD,2022-08-17 11:48:28,15.08836164,0.0001584,53.2176,315.9253,49.0001,311.1128,2.847e-05,1.65e-06,0.0,0 STARLINK-3275,1 50188U 21125AJ  22229.49199299  .00000165  00000-0  28470-4 0  9999,2 50188  53.2176 315.9253 0001584  49.0001 311.1128 15.08836164 40494,6917.892,95.438,540.8530000000002,538.661,0.0
50188.0,STARLINK-3275,PAYLOAD,2022-08-18 11:39:14,15.0884347,0.0001506,53.218,311.464,57.6323,302.4815,1.8141e-05,1e-08,0.0,0 STARLINK-3275,1 50188U 21125AJ  22230.48558694  .00000001  00000-0  18141-4 0  9991,2 50188  53.2180 311.4640 0001506  57.6323 302.4815 15.08843470 40647,6917.87,95.437,540.7769999999998,538.693,0.0
50188.0,STARLINK-3275,PAYLOAD,2022-08-19 11:30:01,15.08836817,0.0001227,53.2181,307.0022,86.7639,273.3494,5.405e-05,5.72e-06,0.0,0 STARLINK-3275,1 50188U 21125AJ  22231.47918755  .00000572  00000-0  54050-4 0  9991,2 50188  53.2181 307.0022 0001227  86.7639 273.3494 15.08836817 40798,6917.89,95.438,540.604,538.906,0.0
50188.0,STARLINK-3275,PAYLOAD,2022-08-20 03:23:54,15.08830618,0.000162,53.2167,304.0312,46.7135,313.3992,-6.1418e-05,-1.265e-05,0.0,0 STARLINK-3275,1 50188U 21125AJ  22232.14159955 -.00001265  00000-0 -61418-4 0  9993,2 50188  53.2167 304.0312 0001620  46.7135 313.3992 15.08830618 37758,6917.909000000002,95.438,540.895,538.653,0.0
50188.0,STARLINK-3275,PAYLOAD,2022-08-20 11:20:49,15.08833993,0.0001605,53.2167,302.5439,46.0146,314.0978,-3.0253000000000013e-05,-7.69e-06,0.0,0 STARLINK-3275,1 50188U 21125AJ  22232.47279736 -.00000769  00000-0 -30253-4 0  9990,2 50188  53.2167 302.5439 0001605  46.0146 314.0978 15.08833993 40945,6917.899,95.438,540.874,538.653,0.0
50188.0,STARLINK-3275,PAYLOAD,2022-08-21 11:11:36,15.08837417,0.0001575999999999,53.2171,298.0839,47.7534,312.3592,0.00010871,1.442e-05,0.0,0 STARLINK-3275,1 50188U 21125AJ  22233.46639389  .00001442  00000-0  10871-3 0  9994,2 50188  53.2171 298.0839 0001576  47.7534 312.3592 15.08837417 41094,6917.888000000001,95.438,540.844,538.663,0.0
50188.0,STARLINK-3275,PAYLOAD,2022-08-21 12:46:59,15.08837168,0.0001607,53.217,297.7865,46.7615,313.3511,0.00010427,1.372e-05,0.0,0 STARLINK-3275,1 50188U 21125AJ  22233.53263439  .00001372  00000-0  10427-3 0  9990,2 50188  53.2170 297.7865 0001607  46.7615 313.3511 15.08837168 41109,6917.889,95.438,540.866,538.6419999999998,0.0
